[{"OBJECT_NAME":"OBJECT B","OBJECT_ID":"2024-153B","EPOCH":"2026-03-09T23:15:18.632160","MEAN_MOTION":15.30512917,"ECCENTRICITY":0.00113423,"INCLINATION":97.6622,"RA_OF_ASC_NODE":204.9195,"ARG_OF_PERICENTER":149.8438,"MEAN_ANOMALY":210.3457,"EPHEMERIS_TYPE":0,"CLASSIFICATION_TYPE":"U","NORAD_CAT_ID":60746,"ELEMENT_SET_NO":999,"REV_AT_EPOCH":8476,"BSTAR":0.00066193599,"MEAN_MOTION_DOT":0.00019515,"MEAN_MOTION_DDOT":0},{"OBJECT_NAME":"STARLINK-36133","OBJECT_ID":"2025-288E","EPOCH":"2026-03-09T22:24:24.870816","MEAN_MOTION":15.2759578,"ECCENTRICITY":0.00015265,"INCLINATION":43.0034,"RA_OF_ASC_NODE":22.1673,"ARG_OF_PERICENTER":249.2946,"MEAN_ANOMALY":110.7742,"EPHEMERIS_TYPE":0,"CLASSIFICATION_TYPE":"U","NORAD_CAT_ID":66963,"ELEMENT_SET_NO":999,"REV_AT_EPOCH":1532,"BSTAR":0.0015557609,"MEAN_MOTION_DOT":0.00042819,"MEAN_MOTION_DDOT":0}]
